[{"OBJECT_NAME":"PCSAT (NO-44)","OBJECT_ID":"2001-043C","EPOCH":"2026-04-04T07:58:02.965728","MEAN_MOTION":14.31926355,"ECCENTRICITY":0.00068221,"INCLINATION":67.0497,"RA_OF_ASC_NODE":75.2903,"ARG_OF_PERICENTER":264.5561,"MEAN_ANOMALY":95.4763,"EPHEMERIS_TYPE":0,"CLASSIFICATION_TYPE":"U","NORAD_CAT_ID":26931,"ELEMENT_SET_NO":999,"REV_AT_EPOCH":27987,"BSTAR":0.00014066441,"MEAN_MOTION_DOT":2.94e-6,"MEAN_MOTION_DDOT":0},{"OBJECT_NAME":"PROBA-1","OBJECT_ID":"2001-049B","EPOCH":"2026-04-04T23:35:04.307136","MEAN_MOTION":15.07206841,"ECCENTRICITY":0.00556069,"INCLINATION":97.9625,"RA_OF_ASC_NODE":100.9662,"ARG_OF_PERICENTER":12.1345,"MEAN_ANOMALY":348.1206,"EPHEMERIS_TYPE":0,"CLASSIFICATION_TYPE":"U","NORAD_CAT_ID":26958,"ELEMENT_SET_NO":999,"REV_AT_EPOCH":33259,"BSTAR":0.00032555437,"MEAN_MOTION_DOT":5.007e-5,"MEAN_MOTION_DDOT":0},{"OBJECT_NAME":"SPOT 5","OBJECT_ID":"2002-021A","EPOCH":"2026-04-04T20:23:19.414464","MEAN_MOTION":14.54689026,"ECCENTRICITY":0.01305679,"INCLINATION":97.9934,"RA_OF_ASC_NODE":136.938,"ARG_OF_PERICENTER":144.132,"MEAN_ANOMALY":216.8733,"EPHEMERIS_TYPE":0,"CLASSIFICATION_TYPE":"U","NORAD_CAT_ID":27421,"ELEMENT_SET_NO":999,"REV_AT_EPOCH":25218,"BSTAR":0.00014186202,"MEAN_MOTION_DOT":6.32e-6,"MEAN_MOTION_DDOT":0},{"OBJECT_NAME":"FENGYUN 1D","OBJECT_ID":"2002-024B","EPOCH":"2026-04-04T20:33:36.044352","MEAN_MOTION":14.10214538,"ECCENTRICITY":0.00164726,"INCLINATION":98.9603,"RA_OF_ASC_NODE":145.4949,"ARG_OF_PERICENTER":89.7675,"MEAN_ANOMALY":270.5383,"EPHEMERIS_TYPE":0,"CLASSIFICATION_TYPE":"U","NORAD_CAT_ID":27431,"ELEMENT_SET_NO":999,"REV_AT_EPOCH":22914,"BSTAR":9.1357943e-5,"MEAN_MOTION_DOT":1.17e-6,"MEAN_MOTION_DDOT":0},{"OBJECT_NAME":"SAUDISAT 1C (SO-50)","OBJECT_ID":"2002-058C","EPOCH":"2026-04-04T22:04:29.126784","MEAN_MOTION":14.82888184,"ECCENTRICITY":0.0075476,"INCLINATION":64.5553,"RA_OF_ASC_NODE":355.6452,"ARG_OF_PERICENTER":275.8317,"MEAN_ANOMALY":83.4189,"EPHEMERIS_TYPE":0,"CLASSIFICATION_TYPE":"U","NORAD_CAT_ID":27607,"ELEMENT_SET_NO":999,"REV_AT_EPOCH":25359,"BSTAR":0.00024555358,"MEAN_MOTION_DOT":1.941e-5,"MEAN_MOTION_DDOT":0},{"OBJECT_NAME":"CORIOLIS","OBJECT_ID":"2003-001A","EPOCH":"2026-04-04T21:54:53.434080","MEAN_MOTION":14.1992352,"ECCENTRICITY":0.00150696,"INCLINATION":98.7156,"RA_OF_ASC_NODE":102.9104,"ARG_OF_PERICENTER":66.1159,"MEAN_ANOMALY":294.1595,"EPHEMERIS_TYPE":0,"CLASSIFICATION_TYPE":"U","NORAD_CAT_ID":27640,"ELEMENT_SET_NO":999,"REV_AT_EPOCH":20382,"BSTAR":0.00010315352,"MEAN_MOTION_DOT":1.76e-6,"MEAN_MOTION_DDOT":0},{"OBJECT_NAME":"CUTE-1 (CO-55)","OBJECT_ID":"2003-031E","EPOCH":"2026-04-04T21:47:20.095872","MEAN_MOTION":14.24289255,"ECCENTRICITY":0.00103303,"INCLINATION":98.6769,"RA_OF_ASC_NODE":104.3819,"ARG_OF_PERICENTER":44.1205,"MEAN_ANOMALY":316.0797,"EPHEMERIS_TYPE":0,"CLASSIFICATION_TYPE":"U","NORAD_CAT_ID":27844,"ELEMENT_SET_NO":999,"REV_AT_EPOCH":18124,"BSTAR":0.00021705679,"MEAN_MOTION_DOT":4.58e-6,"MEAN_MOTION_DDOT":0},{"OBJECT_NAME":"CUBESAT XI-IV (CO-57)","OBJECT_ID":"2003-031J","EPOCH":"2026-04-04T22:19:13.807488","MEAN_MOTION":14.23580823,"ECCENTRICITY":0.00104767,"INCLINATION":98.6802,"RA_OF_ASC_NODE":104.1755,"ARG_OF_PERICENTER":60.6345,"MEAN_ANOMALY":299.5879,"EPHEMERIS_TYPE":0,"CLASSIFICATION_TYPE":"U","NORAD_CAT_ID":27848,"ELEMENT_SET_NO":999,"REV_AT_EPOCH":18095,"BSTAR":0.00018379455,"MEAN_MOTION_DOT":3.75e-6,"MEAN_MOTION_DDOT":0},{"OBJECT_NAME":"MOZHAETS 4 (RS22)","OBJECT_ID":"2003-042A","EPOCH":"2026-04-04T22:54:09.690048","MEAN_MOTION":14.73336151,"ECCENTRICITY":0.0012127,"INCLINATION":98.3454,"RA_OF_ASC_NODE":277.2503,"ARG_OF_PERICENTER":136.7494,"MEAN_ANOMALY":19.6243,"EPHEMERIS_TYPE":0,"CLASSIFICATION_TYPE":"U","NORAD_CAT_ID":27939,"ELEMENT_SET_NO":999,"REV_AT_EPOCH":20476,"BSTAR":0.0004870838,"MEAN_MOTION_DOT":3.103e-5,"MEAN_MOTION_DDOT":0},{"OBJECT_NAME":"IRS-P6 (RESOURCESAT-1)","OBJECT_ID":"2003-046A","EPOCH":"2026-04-04T22:35:37.733280","MEAN_MOTION":14.36133959,"ECCENTRICITY":0.0063655,"INCLINATION":98.1989,"RA_OF_ASC_NODE":135.0154,"ARG_OF_PERICENTER":200.9924,"MEAN_ANOMALY":257.8348,"EPHEMERIS_TYPE":0,"CLASSIFICATION_TYPE":"U","NORAD_CAT_ID":28051,"ELEMENT_SET_NO":999,"REV_AT_EPOCH":17001,"BSTAR":0.00013882346,"MEAN_MOTION_DOT":3.73e-6,"MEAN_MOTION_DDOT":0},{"OBJECT_NAME":"SAUDISAT 2","OBJECT_ID":"2004-025F","EPOCH":"2026-04-04T22:37:07.359456","MEAN_MOTION":14.56638634,"ECCENTRICITY":0.00251236,"INCLINATION":98.5511,"RA_OF_ASC_NODE":93.0364,"ARG_OF_PERICENTER":159.1598,"MEAN_ANOMALY":201.0629,"EPHEMERIS_TYPE":0,"CLASSIFICATION_TYPE":"U","NORAD_CAT_ID":28371,"ELEMENT_SET_NO":999,"REV_AT_EPOCH":15508,"BSTAR":0.00010748334,"MEAN_MOTION_DOT":4.32e-6,"MEAN_MOTION_DDOT":0},{"OBJECT_NAME":"COSMOS 2407","OBJECT_ID":"2004-028A","EPOCH":"2026-04-04T21:09:58.248288","MEAN_MOTION":13.7632824,"ECCENTRICITY":0.00406998,"INCLINATION":82.9583,"RA_OF_ASC_NODE":129.1322,"ARG_OF_PERICENTER":97.2744,"MEAN_ANOMALY":76.6721,"EPHEMERIS_TYPE":0,"CLASSIFICATION_TYPE":"U","NORAD_CAT_ID":28380,"ELEMENT_SET_NO":999,"REV_AT_EPOCH":8979,"BSTAR":6.2956494e-5,"MEAN_MOTION_DOT":7.7e-7,"MEAN_MOTION_DDOT":0},{"OBJECT_NAME":"COSMOS 2414","OBJECT_ID":"2005-002A","EPOCH":"2026-04-04T22:21:32.822496","MEAN_MOTION":13.87918574,"ECCENTRICITY":0.00401662,"INCLINATION":82.9453,"RA_OF_ASC_NODE":99.0611,"ARG_OF_PERICENTER":176.2016,"MEAN_ANOMALY":183.9461,"EPHEMERIS_TYPE":0,"CLASSIFICATION_TYPE":"U","NORAD_CAT_ID":28521,"ELEMENT_SET_NO":999,"REV_AT_EPOCH":7365,"BSTAR":2.8243733e-5,"MEAN_MOTION_DOT":5.0e-7,"MEAN_MOTION_DDOT":0},{"OBJECT_NAME":"INMARSAT 4-F1","OBJECT_ID":"2005-009A","EPOCH":"2026-04-04T15:21:38.811456","MEAN_MOTION":1.0027273,"ECCENTRICITY":0.00036932,"INCLINATION":5.07,"RA_OF_ASC_NODE":42.7089,"ARG_OF_PERICENTER":354.0627,"MEAN_ANOMALY":204.6962,"EPHEMERIS_TYPE":0,"CLASSIFICATION_TYPE":"U","NORAD_CAT_ID":28628,"ELEMENT_SET_NO":999,"REV_AT_EPOCH":7693,"BSTAR":0,"MEAN_MOTION_DOT":3.4e-7,"MEAN_MOTION_DDOT":0},{"OBJECT_NAME":"HAMSAT (VO-52)","OBJECT_ID":"2005-017B","EPOCH":"2026-04-04T22:26:44.484576","MEAN_MOTION":15.09098759,"ECCENTRICITY":0.00180428,"INCLINATION":97.9962,"RA_OF_ASC_NODE":114.9157,"ARG_OF_PERICENTER":285.892,"MEAN_ANOMALY":74.0319,"EPHEMERIS_TYPE":0,"CLASSIFICATION_TYPE":"U","NORAD_CAT_ID":28650,"ELEMENT_SET_NO":999,"REV_AT_EPOCH":13571,"BSTAR":0.00047591773,"MEAN_MOTION_DOT":7.505e-5,"MEAN_MOTION_DDOT":0},{"OBJECT_NAME":"NOAA 18","OBJECT_ID":"2005-018A","EPOCH":"2026-04-04T20:53:01.456800","MEAN_MOTION":14.13716487,"ECCENTRICITY":0.0014182,"INCLINATION":98.8123,"RA_OF_ASC_NODE":175.6063,"ARG_OF_PERICENTER":3.9935,"MEAN_ANOMALY":356.1348,"EPHEMERIS_TYPE":0,"CLASSIFICATION_TYPE":"U","NORAD_CAT_ID":28654,"ELEMENT_SET_NO":999,"REV_AT_EPOCH":7595,"BSTAR":7.121958e-5,"MEAN_MOTION_DOT":9.1e-7,"MEAN_MOTION_DDOT":0},{"OBJECT_NAME":"SJ-7","OBJECT_ID":"2005-024A","EPOCH":"2026-04-04T14:30:26.422272","MEAN_MOTION":15.20477691,"ECCENTRICITY":0.001436,"INCLINATION":97.7362,"RA_OF_ASC_NODE":122.7642,"ARG_OF_PERICENTER":289.335,"MEAN_ANOMALY":70.6332,"EPHEMERIS_TYPE":0,"CLASSIFICATION_TYPE":"U","NORAD_CAT_ID":28737,"ELEMENT_SET_NO":999,"REV_AT_EPOCH":13684,"BSTAR":0.00055908,"MEAN_MOTION_DOT":0.0001218,"MEAN_MOTION_DDOT":0}]
