PCSAT (NO-44)           
1 26931U 01043C   26094.33197877  .00000294  00000+0  14066-3 0  9999
2 26931  67.0497  75.2903 0006822 264.5561  95.4763 14.31926355279875
PROBA-1                 
1 26958U 01049B   26094.98268874  .00005007  00000+0  32555-3 0  9991
2 26958  97.9625 100.9662 0055606  12.1345 348.1206 15.07206841332592
SPOT 5                  
1 27421U 02021A   26094.84953026  .00000632  00000+0  14186-3 0  9992
2 27421  97.9934 136.9380 0130567 144.1320 216.8733 14.54689026252189
FENGYUN 1D              
1 27431U 02024B   26094.85666718  .00000117  00000+0  91358-4 0  9991
2 27431  98.9603 145.4949 0016472  89.7675 270.5383 14.10214538229147
SAUDISAT 1C (SO-50)     
1 27607U 02058C   26094.91978156  .00001941  00000+0  24555-3 0  9992
2 27607  64.5553 355.6452 0075476 275.8317  83.4189 14.82888184253593
CORIOLIS                
1 27640U 03001A   26094.91311845  .00000176  00000+0  10315-3 0  9992
2 27640  98.7156 102.9104 0015069  66.1159 294.1595 14.19923520203829
CUTE-1 (CO-55)          
1 27844U 03031E   26094.90787148  .00000458  00000+0  21706-3 0  9992
2 27844  98.6769 104.3819 0010330  44.1205 316.0797 14.24289255181242
CUBESAT XI-IV (CO-57)   
1 27848U 03031J   26094.93002092  .00000375  00000+0  18379-3 0  9997
2 27848  98.6802 104.1755 0010476  60.6345 299.5879 14.23580823180957
MOZHAETS 4 (RS22)       
1 27939U 03042A   26094.95427882  .00003103  00000+0  48708-3 0  9991
2 27939  98.3454 277.2503 0012127 136.7494  19.6243 14.73336151204766
IRS-P6 (RESOURCESAT-1)  
1 28051U 03046A   26094.94140895  .00000373  00000+0  13882-3 0  9997
2 28051  98.1989 135.0154 0063655 200.9924 257.8348 14.36133959170012
SAUDISAT 2              
1 28371U 04025F   26094.94244629  .00000432  00000+0  10748-3 0  9994
2 28371  98.5511  93.0364 0025123 159.1598 201.0629 14.56638634155083
COSMOS 2407             
1 28380U 04028A   26094.88192417  .00000077  00000+0  62956-4 0  9991
2 28380  82.9583 129.1322 0040699  97.2744  76.6721 13.76328240 89797
COSMOS 2414             
1 28521U 05002A   26094.93162989  .00000050  00000+0  28244-4 0  9991
2 28521  82.9453  99.0611 0040166 176.2016 183.9461 13.87918574 73653
INMARSAT 4-F1           
1 28628U 05009A   26094.64003254  .00000034  00000+0  00000+0 0  9990
2 28628   5.0700  42.7089 0003693 354.0627 204.6962  1.00272730 76934
HAMSAT (VO-52)          
1 28650U 05017B   26094.93523709  .00007505  00000+0  47592-3 0  9999
2 28650  97.9962 114.9157 0018042 285.8920  74.0319 15.09098759135716
NOAA 18                 
1 28654U 05018A   26094.87015575  .00000091  00000+0  71220-4 0  9993
2 28654  98.8123 175.6063 0014182   3.9935 356.1348 14.13716487 75959
SJ-7                    
1 28737U 05024A   26094.60447248  .00012180  00000+0  55908-3 0  9995
2 28737  97.7362 122.7642 0014360 289.3350  70.6332 15.20477691136846
